<?xml version="1.0" encoding="UTF-8"?>
<ndm xmlns:xsi="http://www.w3.org/2001/XMLSchema-instance" xsi:noNamespaceSchemaLocation="https://sanaregistry.org/r/ndmxml_unqualified/ndmxml-2.0.0-master-2.0.xsd">
<omm id="CCSDS_OMM_VERS" version="2.0">
<header><CREATION_DATE/><ORIGINATOR/></header><body><segment><metadata><OBJECT_NAME>ORBCOMM FM33</OBJECT_NAME><OBJECT_ID>1999-065D</OBJECT_ID><CENTER_NAME>EARTH</CENTER_NAME><REF_FRAME>TEME</REF_FRAME><TIME_SYSTEM>UTC</TIME_SYSTEM><MEAN_ELEMENT_THEORY>SGP4</MEAN_ELEMENT_THEORY></metadata><data><meanElements><EPOCH>2025-09-02T15:40:21.992448</EPOCH><MEAN_MOTION>14.40143655</MEAN_MOTION><ECCENTRICITY>.00074902</ECCENTRICITY><INCLINATION>45.0303</INCLINATION><RA_OF_ASC_NODE>350.6219</RA_OF_ASC_NODE><ARG_OF_PERICENTER>104.2172</ARG_OF_PERICENTER><MEAN_ANOMALY>255.9510</MEAN_ANOMALY></meanElements><tleParameters><EPHEMERIS_TYPE>0</EPHEMERIS_TYPE><CLASSIFICATION_TYPE>U</CLASSIFICATION_TYPE><NORAD_CAT_ID>25983</NORAD_CAT_ID><ELEMENT_SET_NO>999</ELEMENT_SET_NO><REV_AT_EPOCH>34723</REV_AT_EPOCH><BSTAR>.68088043E-3</BSTAR><MEAN_MOTION_DOT>.2029E-4</MEAN_MOTION_DOT><MEAN_MOTION_DDOT>0</MEAN_MOTION_DDOT></tleParameters></data></segment></body></omm>
<omm id="CCSDS_OMM_VERS" version="2.0">
<header><CREATION_DATE/><ORIGINATOR/></header><body><segment><metadata><OBJECT_NAME>ORBCOMM FM36</OBJECT_NAME><OBJECT_ID>1999-065E</OBJECT_ID><CENTER_NAME>EARTH</CENTER_NAME><REF_FRAME>TEME</REF_FRAME><TIME_SYSTEM>UTC</TIME_SYSTEM><MEAN_ELEMENT_THEORY>SGP4</MEAN_ELEMENT_THEORY></metadata><data><meanElements><EPOCH>2025-09-02T20:35:03.423264</EPOCH><MEAN_MOTION>14.38293121</MEAN_MOTION><ECCENTRICITY>.00026768</ECCENTRICITY><INCLINATION>45.0383</INCLINATION><RA_OF_ASC_NODE>82.7703</RA_OF_ASC_NODE><ARG_OF_PERICENTER>345.6454</ARG_OF_PERICENTER><MEAN_ANOMALY>14.4318</MEAN_ANOMALY></meanElements><tleParameters><EPHEMERIS_TYPE>0</EPHEMERIS_TYPE><CLASSIFICATION_TYPE>U</CLASSIFICATION_TYPE><NORAD_CAT_ID>25984</NORAD_CAT_ID><ELEMENT_SET_NO>999</ELEMENT_SET_NO><REV_AT_EPOCH>34560</REV_AT_EPOCH><BSTAR>.97024801E-3</BSTAR><MEAN_MOTION_DOT>.2838E-4</MEAN_MOTION_DOT><MEAN_MOTION_DDOT>0</MEAN_MOTION_DDOT></tleParameters></data></segment></body></omm>
<omm id="CCSDS_OMM_VERS" version="2.0">
<header><CREATION_DATE/><ORIGINATOR/></header><body><segment><metadata><OBJECT_NAME>ORBCOMM FM35</OBJECT_NAME><OBJECT_ID>1999-065F</OBJECT_ID><CENTER_NAME>EARTH</CENTER_NAME><REF_FRAME>TEME</REF_FRAME><TIME_SYSTEM>UTC</TIME_SYSTEM><MEAN_ELEMENT_THEORY>SGP4</MEAN_ELEMENT_THEORY></metadata><data><meanElements><EPOCH>2025-09-02T19:46:25.669344</EPOCH><MEAN_MOTION>14.37246022</MEAN_MOTION><ECCENTRICITY>.00043223</ECCENTRICITY><INCLINATION>45.0393</INCLINATION><RA_OF_ASC_NODE>88.5835</RA_OF_ASC_NODE><ARG_OF_PERICENTER>67.2711</ARG_OF_PERICENTER><MEAN_ANOMALY>292.8594</MEAN_ANOMALY></meanElements><tleParameters><EPHEMERIS_TYPE>0</EPHEMERIS_TYPE><CLASSIFICATION_TYPE>U</CLASSIFICATION_TYPE><NORAD_CAT_ID>25985</NORAD_CAT_ID><ELEMENT_SET_NO>999</ELEMENT_SET_NO><REV_AT_EPOCH>34595</REV_AT_EPOCH><BSTAR>.7426474E-3</BSTAR><MEAN_MOTION_DOT>.2091E-4</MEAN_MOTION_DOT><MEAN_MOTION_DDOT>0</MEAN_MOTION_DDOT></tleParameters></data></segment></body></omm>
<omm id="CCSDS_OMM_VERS" version="2.0">
<header><CREATION_DATE/><ORIGINATOR/></header><body><segment><metadata><OBJECT_NAME>ORBCOMM FM34</OBJECT_NAME><OBJECT_ID>1999-065G</OBJECT_ID><CENTER_NAME>EARTH</CENTER_NAME><REF_FRAME>TEME</REF_FRAME><TIME_SYSTEM>UTC</TIME_SYSTEM><MEAN_ELEMENT_THEORY>SGP4</MEAN_ELEMENT_THEORY></metadata><data><meanElements><EPOCH>2025-09-02T20:36:20.402208</EPOCH><MEAN_MOTION>14.37249555</MEAN_MOTION><ECCENTRICITY>.0004185</ECCENTRICITY><INCLINATION>45.0384</INCLINATION><RA_OF_ASC_NODE>88.8754</RA_OF_ASC_NODE><ARG_OF_PERICENTER>21.5198</ARG_OF_PERICENTER><MEAN_ANOMALY>338.5826</MEAN_ANOMALY></meanElements><tleParameters><EPHEMERIS_TYPE>0</EPHEMERIS_TYPE><CLASSIFICATION_TYPE>U</CLASSIFICATION_TYPE><NORAD_CAT_ID>25986</NORAD_CAT_ID><ELEMENT_SET_NO>999</ELEMENT_SET_NO><REV_AT_EPOCH>34607</REV_AT_EPOCH><BSTAR>.629909E-3</BSTAR><MEAN_MOTION_DOT>.1752E-4</MEAN_MOTION_DOT><MEAN_MOTION_DDOT>0</MEAN_MOTION_DDOT></tleParameters></data></segment></body></omm>
<omm id="CCSDS_OMM_VERS" version="2.0">
<header><CREATION_DATE/><ORIGINATOR/></header><body><segment><metadata><OBJECT_NAME>ORBCOMM FM38</OBJECT_NAME><OBJECT_ID>2008-031A</OBJECT_ID><CENTER_NAME>EARTH</CENTER_NAME><REF_FRAME>TEME</REF_FRAME><TIME_SYSTEM>UTC</TIME_SYSTEM><MEAN_ELEMENT_THEORY>SGP4</MEAN_ELEMENT_THEORY></metadata><data><meanElements><EPOCH>2025-09-02T13:47:09.024000</EPOCH><MEAN_MOTION>14.81594510</MEAN_MOTION><ECCENTRICITY>.00048677</ECCENTRICITY><INCLINATION>48.4404</INCLINATION><RA_OF_ASC_NODE>306.3811</RA_OF_ASC_NODE><ARG_OF_PERICENTER>3.7855</ARG_OF_PERICENTER><MEAN_ANOMALY>356.3097</MEAN_ANOMALY></meanElements><tleParameters><EPHEMERIS_TYPE>0</EPHEMERIS_TYPE><CLASSIFICATION_TYPE>U</CLASSIFICATION_TYPE><NORAD_CAT_ID>33060</NORAD_CAT_ID><ELEMENT_SET_NO>999</ELEMENT_SET_NO><REV_AT_EPOCH>92622</REV_AT_EPOCH><BSTAR>.50546632E-3</BSTAR><MEAN_MOTION_DOT>.3802E-4</MEAN_MOTION_DOT><MEAN_MOTION_DDOT>0</MEAN_MOTION_DDOT></tleParameters></data></segment></body></omm>
<omm id="CCSDS_OMM_VERS" version="2.0">
<header><CREATION_DATE/><ORIGINATOR/></header><body><segment><metadata><OBJECT_NAME>ORBCOMM FM41</OBJECT_NAME><OBJECT_ID>2008-031B</OBJECT_ID><CENTER_NAME>EARTH</CENTER_NAME><REF_FRAME>TEME</REF_FRAME><TIME_SYSTEM>UTC</TIME_SYSTEM><MEAN_ELEMENT_THEORY>SGP4</MEAN_ELEMENT_THEORY></metadata><data><meanElements><EPOCH>2025-09-02T16:37:58.625760</EPOCH><MEAN_MOTION>14.81170740</MEAN_MOTION><ECCENTRICITY>.00042774</ECCENTRICITY><INCLINATION>48.4441</INCLINATION><RA_OF_ASC_NODE>313.8636</RA_OF_ASC_NODE><ARG_OF_PERICENTER>346.9430</ARG_OF_PERICENTER><MEAN_ANOMALY>151.7234</MEAN_ANOMALY></meanElements><tleParameters><EPHEMERIS_TYPE>0</EPHEMERIS_TYPE><CLASSIFICATION_TYPE>U</CLASSIFICATION_TYPE><NORAD_CAT_ID>33061</NORAD_CAT_ID><ELEMENT_SET_NO>999</ELEMENT_SET_NO><REV_AT_EPOCH>92572</REV_AT_EPOCH><BSTAR>.49956136E-3</BSTAR><MEAN_MOTION_DOT>.3716E-4</MEAN_MOTION_DOT><MEAN_MOTION_DDOT>0</MEAN_MOTION_DDOT></tleParameters></data></segment></body></omm>
<omm id="CCSDS_OMM_VERS" version="2.0">
<header><CREATION_DATE/><ORIGINATOR/></header><body><segment><metadata><OBJECT_NAME>ORBCOMM FM29</OBJECT_NAME><OBJECT_ID>2008-031C</OBJECT_ID><CENTER_NAME>EARTH</CENTER_NAME><REF_FRAME>TEME</REF_FRAME><TIME_SYSTEM>UTC</TIME_SYSTEM><MEAN_ELEMENT_THEORY>SGP4</MEAN_ELEMENT_THEORY></metadata><data><meanElements><EPOCH>2025-09-02T22:44:35.640672</EPOCH><MEAN_MOTION>14.81284851</MEAN_MOTION><ECCENTRICITY>.0005882</ECCENTRICITY><INCLINATION>48.4393</INCLINATION><RA_OF_ASC_NODE>320.3630</RA_OF_ASC_NODE><ARG_OF_PERICENTER>350.5341</ARG_OF_PERICENTER><MEAN_ANOMALY>180.5740</MEAN_ANOMALY></meanElements><tleParameters><EPHEMERIS_TYPE>0</EPHEMERIS_TYPE><CLASSIFICATION_TYPE>U</CLASSIFICATION_TYPE><NORAD_CAT_ID>33062</NORAD_CAT_ID><ELEMENT_SET_NO>999</ELEMENT_SET_NO><REV_AT_EPOCH>92567</REV_AT_EPOCH><BSTAR>.52028397E-3</BSTAR><MEAN_MOTION_DOT>.389E-4</MEAN_MOTION_DOT><MEAN_MOTION_DDOT>0</MEAN_MOTION_DDOT></tleParameters></data></segment></body></omm>
<omm id="CCSDS_OMM_VERS" version="2.0">
<header><CREATION_DATE/><ORIGINATOR/></header><body><segment><metadata><OBJECT_NAME>ORBCOMM FM39</OBJECT_NAME><OBJECT_ID>2008-031D</OBJECT_ID><CENTER_NAME>EARTH</CENTER_NAME><REF_FRAME>TEME</REF_FRAME><TIME_SYSTEM>UTC</TIME_SYSTEM><MEAN_ELEMENT_THEORY>SGP4</MEAN_ELEMENT_THEORY></metadata><data><meanElements><EPOCH>2025-09-02T16:27:15.656832</EPOCH><MEAN_MOTION>14.79804458</MEAN_MOTION><ECCENTRICITY>.00070705</ECCENTRICITY><INCLINATION>48.4413</INCLINATION><RA_OF_ASC_NODE>346.7413</RA_OF_ASC_NODE><ARG_OF_PERICENTER>322.9950</ARG_OF_PERICENTER><MEAN_ANOMALY>37.0477</MEAN_ANOMALY></meanElements><tleParameters><EPHEMERIS_TYPE>0</EPHEMERIS_TYPE><CLASSIFICATION_TYPE>U</CLASSIFICATION_TYPE><NORAD_CAT_ID>33063</NORAD_CAT_ID><ELEMENT_SET_NO>999</ELEMENT_SET_NO><REV_AT_EPOCH>92527</REV_AT_EPOCH><BSTAR>.51195081E-3</BSTAR><MEAN_MOTION_DOT>.3687E-4</MEAN_MOTION_DOT><MEAN_MOTION_DDOT>0</MEAN_MOTION_DDOT></tleParameters></data></segment></body></omm>

</ndm>
