ORBCOMM FM33            
1 25983U 99065D   25245.65303232  .00002029  00000+0  68088-3 0  9993
2 25983  45.0303 350.6219 0007490 104.2172 255.9510 14.40143655347236
ORBCOMM FM36            
1 25984U 99065E   25245.85767851  .00002838  00000+0  97025-3 0  9998
2 25984  45.0383  82.7703 0002676 345.6454  14.4318 14.38293121345605
ORBCOMM FM35            
1 25985U 99065F   25245.82390821  .00002091  00000+0  74265-3 0  9997
2 25985  45.0393  88.5835 0004322  67.2711 292.8594 14.37246022345953
ORBCOMM FM34            
1 25986U 99065G   25245.85856947  .00001752  00000+0  62991-3 0  9993
2 25986  45.0384  88.8754 0004185  21.5198 338.5826 14.37249555346070
ORBCOMM FM38            
1 33060U 08031A   25245.57441000  .00003802  00000+0  50547-3 0  9999
2 33060  48.4404 306.3811 0004867   3.7855 356.3097 14.81594510926225
ORBCOMM FM41            
1 33061U 08031B   25245.69303965  .00003716  00000+0  49956-3 0  9996
2 33061  48.4441 313.8636 0004277 346.9430 151.7234 14.81170740925720
ORBCOMM FM29            
1 33062U 08031C   25245.94763473  .00003890  00000+0  52028-3 0  9996
2 33062  48.4393 320.3630 0005882 350.5341 180.5740 14.81284851925674
ORBCOMM FM39            
1 33063U 08031D   25245.68559788  .00003687  00000+0  51195-3 0  9998
2 33063  48.4413 346.7413 0007070 322.9950  37.0477 14.79804458925276
